PRAETORIAN SDA_617      
1 65580U 25203R   26095.23423844  .00000066  00000+0  49689-4 0  9999
2 65580  81.3007  78.3442 0008328  37.0248 323.1481 13.83194904 28608
PRAETORIAN SDA_618      
1 65581U 25203S   26095.28997008  .00000301  00000+0  25699-3 0  9999
2 65581  81.2993  78.0642 0010570  35.9792 324.2075 13.84764310 28622
PRAETORIAN SDA_619      
1 65582U 25203T   26095.28180197  .00000317  00000+0  27468-3 0  9996
2 65582  81.3014  78.2563 0008864  35.2183 324.9557 13.83934703 29247
PRAETORIAN SDA_620      
1 65583U 25203U   26095.29524403  .00000344  00000+0  30000-3 0  9996
2 65583  81.3004  78.2445 0008333  35.1109 325.0595 13.83709026 28616
PRAETORIAN SDA_621      
1 65584U 25203V   26095.27773484  .00000087  00000+0  68282-4 0  9998
2 65584  81.2992  78.2039 0008126  31.5066 328.6576 13.83791093 28616
PRAETORIAN SDA_601      
1 65585U 25203W   26095.29534212  .00000090  00000+0  70749-4 0  9990
2 65585  81.3010  78.4179 0006502  48.1062 312.0648 13.83421225 28605
