[{"OBJECT_NAME":"PRAETORIAN SDA_617","OBJECT_ID":"2025-203R","EPOCH":"2026-04-05T05:37:18.201216","MEAN_MOTION":13.83194904,"ECCENTRICITY":0.00083285,"INCLINATION":81.3007,"RA_OF_ASC_NODE":78.3442,"ARG_OF_PERICENTER":37.0248,"MEAN_ANOMALY":323.1481,"EPHEMERIS_TYPE":0,"CLASSIFICATION_TYPE":"U","NORAD_CAT_ID":65580,"ELEMENT_SET_NO":999,"REV_AT_EPOCH":2860,"BSTAR":4.9689309e-5,"MEAN_MOTION_DOT":6.6e-7,"MEAN_MOTION_DDOT":0},{"OBJECT_NAME":"PRAETORIAN SDA_618","OBJECT_ID":"2025-203S","EPOCH":"2026-04-05T06:57:33.414912","MEAN_MOTION":13.8476431,"ECCENTRICITY":0.00105709,"INCLINATION":81.2993,"RA_OF_ASC_NODE":78.0642,"ARG_OF_PERICENTER":35.9792,"MEAN_ANOMALY":324.2075,"EPHEMERIS_TYPE":0,"CLASSIFICATION_TYPE":"U","NORAD_CAT_ID":65581,"ELEMENT_SET_NO":999,"REV_AT_EPOCH":2862,"BSTAR":0.0002569899,"MEAN_MOTION_DOT":3.01e-6,"MEAN_MOTION_DDOT":0},{"OBJECT_NAME":"PRAETORIAN SDA_619","OBJECT_ID":"2025-203T","EPOCH":"2026-04-05T06:45:47.690208","MEAN_MOTION":13.83934703,"ECCENTRICITY":0.00088643,"INCLINATION":81.3014,"RA_OF_ASC_NODE":78.2563,"ARG_OF_PERICENTER":35.2183,"MEAN_ANOMALY":324.9557,"EPHEMERIS_TYPE":0,"CLASSIFICATION_TYPE":"U","NORAD_CAT_ID":65582,"ELEMENT_SET_NO":999,"REV_AT_EPOCH":2924,"BSTAR":0.00027467889,"MEAN_MOTION_DOT":3.17e-6,"MEAN_MOTION_DDOT":0},{"OBJECT_NAME":"PRAETORIAN SDA_620","OBJECT_ID":"2025-203U","EPOCH":"2026-04-05T07:05:09.084192","MEAN_MOTION":13.83709026,"ECCENTRICITY":0.00083331,"INCLINATION":81.3004,"RA_OF_ASC_NODE":78.2445,"ARG_OF_PERICENTER":35.1109,"MEAN_ANOMALY":325.0595,"EPHEMERIS_TYPE":0,"CLASSIFICATION_TYPE":"U","NORAD_CAT_ID":65583,"ELEMENT_SET_NO":999,"REV_AT_EPOCH":2861,"BSTAR":0.00029999864,"MEAN_MOTION_DOT":3.44e-6,"MEAN_MOTION_DDOT":0},{"OBJECT_NAME":"PRAETORIAN SDA_621","OBJECT_ID":"2025-203V","EPOCH":"2026-04-05T06:39:56.290176","MEAN_MOTION":13.83791093,"ECCENTRICITY":0.00081268,"INCLINATION":81.2992,"RA_OF_ASC_NODE":78.2039,"ARG_OF_PERICENTER":31.5066,"MEAN_ANOMALY":328.6576,"EPHEMERIS_TYPE":0,"CLASSIFICATION_TYPE":"U","NORAD_CAT_ID":65584,"ELEMENT_SET_NO":999,"REV_AT_EPOCH":2861,"BSTAR":6.8281727e-5,"MEAN_MOTION_DOT":8.7e-7,"MEAN_MOTION_DDOT":0},{"OBJECT_NAME":"PRAETORIAN SDA_601","OBJECT_ID":"2025-203W","EPOCH":"2026-04-05T07:05:17.559168","MEAN_MOTION":13.83421225,"ECCENTRICITY":0.00065025,"INCLINATION":81.301,"RA_OF_ASC_NODE":78.4179,"ARG_OF_PERICENTER":48.1062,"MEAN_ANOMALY":312.0648,"EPHEMERIS_TYPE":0,"CLASSIFICATION_TYPE":"U","NORAD_CAT_ID":65585,"ELEMENT_SET_NO":999,"REV_AT_EPOCH":2860,"BSTAR":7.0749324e-5,"MEAN_MOTION_DOT":9.0e-7,"MEAN_MOTION_DDOT":0}]
